OBJECT_NAME,OBJECT_ID,EPOCH,MEAN_MOTION,ECCENTRICITY,INCLINATION,RA_OF_ASC_NODE,ARG_OF_PERICENTER,MEAN_ANOMALY,EPHEMERIS_TYPE,CLASSIFICATION_TYPE,NORAD_CAT_ID,ELEMENT_SET_NO,REV_AT_EPOCH,BSTAR,MEAN_MOTION_DOT,MEAN_MOTION_DDOT
STARLINK-11741 [DTC],2025-107A,2026-06-05T19:49:47.281152,15.70921043,.00014689,42.9990,287.5162,279.5683,80.5019,0,U,64064,999,6115,.18843428E-2,.249588E-2,0
STARLINK-11709 [DTC],2025-107B,2026-06-04T15:51:07.632864,15.70783803,.00016982,42.9995,294.2454,310.5343,49.5376,0,U,64065,999,6097,.13972237E-2,.182392E-2,0
STARLINK-11737 [DTC],2025-107C,2026-06-05T15:53:08.990304,15.70918160,.00022045,42.9985,287.9805,260.5241,99.5378,0,U,64066,999,6113,.13707429E-2,.17989E-2,0
STARLINK-11726 [DTC],2025-107D,2026-06-05T15:37:51.617568,15.70959432,.00027682,42.9999,287.8952,261.2040,98.8514,0,U,64067,999,6113,.20946127E-2,.278942E-2,0
STARLINK-11700 [DTC],2025-107E,2026-06-05T19:35:48.209280,15.70937325,.00026341,43.0012,287.4327,250.0883,109.9701,0,U,64068,999,6115,.20867914E-2,.277593E-2,0
STARLINK-11649 [DTC],2025-107F,2026-06-05T19:57:25.831008,15.70935253,.00019452,42.9986,287.5544,253.4509,106.6145,0,U,64069,999,6115,.23472841E-2,.313638E-2,0
STARLINK-11713 [DTC],2025-107G,2026-06-05T02:24:24.126336,15.70901557,.00019205,42.9994,291.5165,293.8059,66.2607,0,U,64070,999,6104,.15668311E-2,.206198E-2,0
STARLINK-11719 [DTC],2025-107H,2026-06-05T19:34:30.071712,15.70921979,.00014361,42.9984,287.4293,284.4846,75.5862,0,U,64071,999,6115,.23060546E-2,.307729E-2,0
STARLINK-11733 [DTC],2025-107J,2026-06-05T15:45:30.316896,15.70871891,.00012852,42.9988,287.9363,254.6670,105.4056,0,U,64072,999,6113,.10321898E-2,.134336E-2,0
STARLINK-11729 [DTC],2025-107K,2026-06-05T19:42:08.437536,15.70895730,.00018479,42.9977,287.4690,262.3172,97.7486,0,U,64073,999,6115,.1504052E-2,.197665E-2,0
STARLINK-11730 [DTC],2025-107L,2026-06-05T19:26:52.429056,15.71426536,.0004562,43.0008,287.3837,339.4305,20.6378,0,U,64074,999,6115,.17506E-2,.236526E-2,0
STARLINK-11723 [DTC],2025-107M,2026-06-05T16:00:47.636928,15.70942220,.00009585,42.9998,288.0178,259.1728,100.9032,0,U,64075,999,6113,.15421583E-2,.203215E-2,0
STARLINK-11715 [DTC],2025-107N,2026-06-05T20:04:53.898816,15.70952293,.0001944,42.9982,286.7013,316.8493,43.2222,0,U,64076,999,6116,.26376E-2,.354501E-2,0
STARLINK-34201,2025-107P,2026-06-06T00:05:13.733088,15.27606917,.0001357,43.0038,63.0839,248.7682,111.3025,0,U,64077,999,5853,.87491E-3,.23911E-3,0
STARLINK-34190,2025-107Q,2026-06-05T10:54:57.977280,15.27602243,.00018245,43.0038,65.8456,252.0083,108.0570,0,U,64078,999,5954,.62015723E-3,.16854E-3,0
STARLINK-34168,2025-107R,2026-06-05T10:29:03.498720,15.27587088,.00019962,43.0010,65.7029,266.9225,93.1398,0,U,64079,999,5954,.72126992E-3,.19643E-3,0
STARLINK-34098,2025-107S,2026-06-05T10:40:09.754176,15.27593600,.00020262,43.0024,65.7617,277.1184,82.9437,0,U,64080,999,5954,.5553806E-3,.15058E-3,0
STARLINK-34180,2025-107T,2026-06-05T20:36:32.520672,15.27601477,.0002896,43.0041,63.7135,269.3783,90.6737,0,U,64081,999,5960,.80269E-3,.21908E-3,0
STARLINK-34171,2025-107U,2026-06-06T00:30:55.330272,15.27607199,.0001412,43.0033,62.3472,262.0288,98.0403,0,U,64082,999,5963,.18714E-2,.5164E-3,0
STARLINK-34126,2025-107V,2026-06-05T11:26:25.285920,15.27602244,.00014905,43.0036,66.0075,273.4016,86.6665,0,U,64083,999,5845,.60946675E-3,.16558E-3,0
STARLINK-34157,2025-107W,2026-06-05T10:36:27.643968,15.27591756,.00021644,43.0002,65.7374,279.7615,80.2992,0,U,64084,999,5952,.55959722E-3,.15174E-3,0
STARLINK-34140,2025-107X,2026-06-05T20:31:00.632352,15.27576567,.0001509,43.0028,63.6827,271.8524,88.2155,0,U,64085,999,5958,.10829E-2,.29655E-3,0
STARLINK-34132,2025-107Y,2026-06-05T11:20:52.033344,15.27589950,.00015786,43.0041,65.9766,268.0367,92.0304,0,U,64086,999,5951,.6682627E-3,.18178E-3,0
