[ {"name": "STARLINK-11741 [DTC]", "line1": "1 64064U 25107A   26156.82624168  .00249588  00000+0  18843-2 0  9993", "line2": "2 64064  42.9990 287.5162 0001468 279.5683  80.5019 15.70921043 61153"}, {"name": "STARLINK-11709 [DTC]", "line1": "1 64065U 25107B   26155.66050501  .00182392  00000+0  13972-2 0  9996", "line2": "2 64065  42.9995 294.2454 0001698 310.5343  49.5376 15.70783803 60972"}, {"name": "STARLINK-11737 [DTC]", "line1": "1 64066U 25107C   26156.66190961  .00179890  00000+0  13707-2 0  9998", "line2": "2 64066  42.9985 287.9805 0002204 260.5241  99.5378 15.70918160 61138"}, {"name": "STARLINK-11726 [DTC]", "line1": "1 64067U 25107D   26156.65129187  .00278942  00000+0  20946-2 0  9991", "line2": "2 64067  42.9999 287.8952 0002768 261.2040  98.8514 15.70959432 61137"}, {"name": "STARLINK-11700 [DTC]", "line1": "1 64068U 25107E   26156.81653020  .00277593  00000+0  20868-2 0  9992", "line2": "2 64068  43.0012 287.4327 0002634 250.0883 109.9701 15.70937325 61152"}, {"name": "STARLINK-11649 [DTC]", "line1": "1 64069U 25107F   26156.83154897  .00313638  00000+0  23473-2 0  9999", "line2": "2 64069  42.9986 287.5544 0001945 253.4509 106.6145 15.70935253 61153"}, {"name": "STARLINK-11713 [DTC]", "line1": "1 64070U 25107G   26156.10027924  .00206198  00000+0  15668-2 0  9990", "line2": "2 64070  42.9994 291.5165 0001920 293.8059  66.2607 15.70901557 61041"}, {"name": "STARLINK-11719 [DTC]", "line1": "1 64071U 25107H   26156.81562583  .00307729  00000+0  23061-2 0  9992", "line2": "2 64071  42.9984 287.4293 0001436 284.4846  75.5862 15.70921979 61157"}, {"name": "STARLINK-11733 [DTC]", "line1": "1 64072U 25107J   26156.65660089  .00134336  00000+0  10322-2 0  9993", "line2": "2 64072  42.9988 287.9363 0001285 254.6670 105.4056 15.70871891 61134"}, {"name": "STARLINK-11729 [DTC]", "line1": "1 64073U 25107K   26156.82093099  .00197665  00000+0  15041-2 0  9991", "line2": "2 64073  42.9977 287.4690 0001847 262.3172  97.7486 15.70895730 61158"}, {"name": "STARLINK-11730 [DTC]", "line1": "1 64074U 25107L   26156.81032904  .00236526  00000+0  17506-2 0  9997", "line2": "2 64074  43.0008 287.3837 0004562 339.4305  20.6378 15.71426536 61159"}, {"name": "STARLINK-11723 [DTC]", "line1": "1 64075U 25107M   26156.66721802  .00203215  00000+0  15422-2 0  9997", "line2": "2 64075  42.9998 288.0178 0000958 259.1728 100.9032 15.70942220 61133"}, {"name": "STARLINK-11715 [DTC]", "line1": "1 64076U 25107N   26156.83673494  .00354501  00000+0  26376-2 0  9995", "line2": "2 64076  42.9982 286.7013 0001944 316.8493  43.2222 15.70952293 61160"}, {"name": "STARLINK-34201", "line1": "1 64077U 25107P   26157.00363117  .00023911  00000+0  87491-3 0  9998", "line2": "2 64077  43.0038  63.0839 0001357 248.7682 111.3025 15.27606917 58534"}, {"name": "STARLINK-34190", "line1": "1 64078U 25107Q   26156.45483770  .00016854  00000+0  62016-3 0  9999", "line2": "2 64078  43.0038  65.8456 0001824 252.0083 108.0570 15.27602243 59540"}, {"name": "STARLINK-34168", "line1": "1 64079U 25107R   26156.43684605  .00019643  00000+0  72127-3 0  9991", "line2": "2 64079  43.0010  65.7029 0001996 266.9225  93.1398 15.27587088 59549"}, {"name": "STARLINK-34098", "line1": "1 64080U 25107S   26156.44455734  .00015058  00000+0  55538-3 0  9996", "line2": "2 64080  43.0024  65.7617 0002026 277.1184  82.9437 15.27593600 59549"}, {"name": "STARLINK-34180", "line1": "1 64081U 25107T   26156.85870973  .00021908  00000+0  80269-3 0  9998", "line2": "2 64081  43.0041  63.7135 0002896 269.3783  90.6737 15.27601477 59603"}, {"name": "STARLINK-34171", "line1": "1 64082U 25107U   26157.02147373  .00051640  00000+0  18714-2 0  9991", "line2": "2 64082  43.0033  62.3472 0001412 262.0288  98.0403 15.27607199 59639"}, {"name": "STARLINK-34126", "line1": "1 64083U 25107V   26156.47668155  .00016558  00000+0  60947-3 0  9991", "line2": "2 64083  43.0036  66.0075 0001490 273.4016  86.6665 15.27602244 58452"}, {"name": "STARLINK-34157", "line1": "1 64084U 25107W   26156.44198662  .00015174  00000+0  55960-3 0  9992", "line2": "2 64084  43.0002  65.7374 0002164 279.7615  80.2992 15.27591756 59524"}, {"name": "STARLINK-34140", "line1": "1 64085U 25107X   26156.85486843  .00029655  00000+0  10829-2 0  9992", "line2": "2 64085  43.0028  63.6827 0001509 271.8524  88.2155 15.27576567 59585"}, {"name": "STARLINK-34132", "line1": "1 64086U 25107Y   26156.47282446  .00018178  00000+0  66826-3 0  9991", "line2": "2 64086  43.0041  65.9766 0001578 268.0367  92.0304 15.27589950 59519"}]